GLOBALSTAR M075 [+]     
1 37192U 10054E   24014.26096042 -.00000065  00000+0  21557-3 0  9996
2 37192  51.9971 324.6025 0000384  64.5234  83.1252 12.62269326610341
GLOBALSTAR M073 [+]     
1 37193U 10054F   24014.02291788 -.00000082  00000+0  12163-3 0  9997
2 37193  52.0040 238.7461 0000970  72.7147  74.8659 12.62271522612144
GLOBALSTAR M083 [+]     
1 37739U 11033A   24014.48290125 -.00000107  00000+0 -17238-4 0  9993
2 37739  51.9832 186.7855 0001151 104.2660 274.5479 12.62265024581222
GLOBALSTAR M088 [+]     
1 37740U 11033B   24014.55536664 -.00000077  00000+0  15023-3 0  9998
2 37740  51.9737  92.4930 0000832 142.1692 326.7264 12.62263895577069
GLOBALSTAR M091 [+]     
1 37741U 11033C   24014.40912484 -.00000083  00000+0  11606-3 0  9991
2 37741  52.0010  55.5653 0000679 154.7906 308.3720 12.62270165577548
GLOBALSTAR M085 [+]     
1 37742U 11033D   24014.40955900 -.00000092  00000+0  66132-4 0  9997
2 37742  51.9891   7.0635 0000304 129.9551  34.9917 12.62266384578056
GLOBALSTAR M081 [+]     
1 37743U 11033E   24014.17973883 -.00000092  00000+0  65755-4 0  9992
2 37743  51.9982  10.2285 0000200 170.3351 270.0417 12.62268324578175
GLOBALSTAR M089 [+]     
1 37744U 11033F   24014.06098475 -.00000080  00000+0  13032-3 0  9993
2 37744  51.9955 324.9156 0000500  26.4217  54.7001 12.62271187579003
